     3.04           N: GNSS NAV DATA    M: MIXED            RINEX VERSION / TYPE
ssrcrin-15.6.1x                         20250101 000000 UTC PGM / RUN BY / DATE 
    18                                                      LEAP SECONDS        
                                                            END OF HEADER       
C35 2025 01 01 00 00 00 1.661102287471E-04-1.051425613241E-11 0.000000000000E+00
     1.000000000000E+00 1.768437500000E+02 3.863375210799E-09 6.806155748735E-01
     8.877366781235E-06 8.219957817346E-04 6.842426955700E-06 5.282623332977E+03
     2.592000000000E+05 3.119930624962E-08-2.432535473072E+00-1.117587089539E-08
     9.524375158627E-01 2.180781250000E+02 4.456238224552E-01-6.805640625106E-09
     6.107397254753E-11 0.000000000000E+00 9.910000000000E+02 0.000000000000E+00
     2.000000000000E+00 0.000000000000E+00-2.300000000000E-09-2.300000000000E-09
     2.592180000000E+05 1.000000000000E+00
C39 2025 01 01 00 00 00-1.065433025360E-05-9.325873406851E-14 0.000000000000E+00
     1.000000000000E+00-1.062500000000E+01 1.287196474043E-09-2.426646417346E+00
    -2.649612724781E-07 3.528227447532E-03 1.247972249985E-05 6.493258455276E+03
     2.592000000000E+05 5.960464477539E-08 1.144742410065E+00-5.587935447693E-09
     9.626269816663E-01-1.351718750000E+02-2.886270671570E+00-1.579708658349E-09
     1.208621772520E-09 0.000000000000E+00 9.910000000000E+02 0.000000000000E+00
     2.000000000000E+00 0.000000000000E+00 6.600000000000E-09 6.600000000000E-09
     2.592180000000E+05 1.000000000000E+00
S23 2024 12 31 23 59 28 0.000000000000E+00 0.000000000000E+00 2.592320000000E+05
     3.866796400000E+04 0.000000000000E+00 0.000000000000E+00 6.300000000000E+01
     1.681330800000E+04 0.000000000000E+00 0.000000000000E+00 3.276700000000E+04
     0.000000000000E+00 0.000000000000E+00 0.000000000000E+00 2.420000000000E+02
E11 2024 12 31 23 40 00-6.000138819218E-05-2.196713921876E-10-3.469446951954E-18
     4.900000000000E+01 1.471875000000E+02 2.787973273135E-09 1.712792761471E+00
     6.906688213348E-06 2.581380540505E-04-6.947666406631E-07 5.440609739304E+03
     2.580000000000E+05-7.264316082001E-08-1.774930380975E+00 7.264316082001E-08
     9.965660008483E-01 3.710312500000E+02 1.104032997234E-01-5.713452273935E-09
     2.767972440020E-10 5.170000000000E+02 2.347000000000E+03
     3.120000000000E+00 0.000000000000E+00-1.699663698673E-08-1.746229827404E-08
     2.592350000000E+05
E36 2024 12 31 23 40 00-3.327493323013E-04-5.258016244625E-12 0.000000000000E+00
     4.900000000000E+01 1.423750000000E+02 2.780830118451E-09 2.079585389707E+00
     6.819143891335E-06 3.666823031381E-04-6.649643182755E-07 5.440611961365E+03
     2.580000000000E+05 1.005828380585E-07-1.775602565500E+00 7.078051567078E-08
     9.996673988797E-01 3.713437500000E+02-1.010032249543E+00-5.762382883520E-09
     2.117945363783E-10 5.170000000000E+02 2.347000000000E+03
     3.120000000000E+00 0.000000000000E+00 1.629814505577E-09 3.026798367500E-09
     2.592350000000E+05
G19 2025 01 01 02 00 00 5.807681009173E-04 4.661160346586E-12 0.000000000000E+00
     5.300000000000E+01 1.055000000000E+02 4.195174745867E-09-4.929850506462E-01
     5.500391125679E-06 1.001706870738E-02 1.033209264278E-05 5.153606079102E+03
     2.664000000000E+05 6.146728992462E-08-2.805776841696E+00-1.713633537292E-07
     9.652440045958E-01 1.852187500000E+02 2.699722324900E+00-7.807110911792E-09
    -9.428964182777E-11 1.000000000000E+00 2.347000000000E+03 0.000000000000E+00
     2.000000000000E+00 0.000000000000E+00-1.536682248116E-08 5.300000000000E+01
     2.592480000000E+05 4.000000000000E+00
E11 2024 12 31 23 50 00-6.013328675181E-05-2.196713921876E-10-3.469446951954E-18
     5.000000000000E+01 1.501875000000E+02 2.793687796882E-09 1.788181188650E+00
     7.040798664093E-06 2.584301400930E-04-6.482005119324E-07 5.440608966827E+03
     2.586000000000E+05-7.636845111847E-08-1.774933897830E+00 5.587935447693E-08
     9.965661793243E-01 3.699687500000E+02 1.093999090825E-01-5.704880488314E-09
     2.817974522807E-10 5.170000000000E+02 2.347000000000E+03
     3.120000000000E+00 0.000000000000E+00-1.699663698673E-08-1.746229827404E-08
     2.592650000000E+05
E06 2024 12 31 23 50 00-6.513757398352E-05-4.405364961713E-12 0.000000000000E+00
     5.000000000000E+01-1.324062500000E+02 2.700826785991E-09-1.773330432822E+00
    -6.178393959999E-06 4.485998069867E-04 1.192651689053E-05 5.440615646362E+03
     2.586000000000E+05 3.352761268616E-08 3.159655423074E-01 7.450580596924E-08
     9.568363101073E-01 8.378125000000E+01 1.981162120703E+00-5.193073455211E-09
     3.910877189447E-10 5.170000000000E+02 2.347000000000E+03
     3.120000000000E+00 0.000000000000E+00-2.328306436539E-10 1.629814505577E-09
     2.592650000000E+05
E36 2024 12 31 23 50 00-3.327524755150E-04-5.258016244625E-12 0.000000000000E+00
     5.000000000000E+01 1.415312500000E+02 2.776187067906E-09 2.153749215477E+00
     6.774440407753E-06 3.664547111839E-04-5.718320608139E-07 5.440612442017E+03
     2.586000000000E+05 8.940696716309E-08-1.775606107224E+00 8.940696716309E-08
     9.996674720256E-01 3.695625000000E+02-1.009810627694E+00-5.759168463912E-09
     2.242950570751E-10 5.170000000000E+02 2.347000000000E+03
     3.120000000000E+00 0.000000000000E+00 1.629814505577E-09 3.026798367500E-09
     2.592650000000E+05
E09 2024 12 31 23 50 00-7.210747571662E-04-1.412558958691E-11 0.000000000000E+00
     5.000000000000E+01-1.241875000000E+02 2.519033499285E-09-4.660389583590E-01
    -5.824491381645E-06 1.980814849958E-04 1.181662082672E-05 5.440623224258E+03
     2.586000000000E+05 6.705522537231E-08 3.143446978327E-01 2.793967723846E-08
     9.694393332680E-01 9.165625000000E+01 3.105939016884E-01-5.140928426018E-09
     3.707297280955E-10 5.170000000000E+02 2.347000000000E+03
     3.120000000000E+00 0.000000000000E+00-2.793967723846E-09-2.095475792885E-09
     2.592650000000E+05
E02 2024 12 31 23 50 00 1.866047969088E-04 2.870592652471E-12 0.000000000000E+00
     5.000000000000E+01-2.062500000000E+01 3.278350842186E-09 1.768511620168E+00
    -8.996576070786E-07 5.084086442366E-04 7.301568984985E-06 5.440616699219E+03
     2.586000000000E+05-1.676380634308E-08 2.417028823775E+00 6.332993507385E-08
     9.646678123665E-01 1.853437500000E+02 6.803122724569E-01-5.420225774160E-09
    -6.053823594624E-10 5.170000000000E+02 2.347000000000E+03
     3.120000000000E+00 0.000000000000E+00-5.122274160385E-09-5.355104804039E-09
     2.592650000000E+05
E04 2024 12 31 23 50 00-1.209950423799E-04-9.478640095040E-12 0.000000000000E+00
     5.000000000000E+01-1.462812500000E+02 2.606537144163E-09 2.317917698005E+00
    -6.761401891708E-06 1.080200308934E-04 1.160427927971E-05 5.440611116409E+03
     2.586000000000E+05-4.842877388000E-08 3.135775509065E-01 7.078051567078E-08
     9.636130776897E-01 9.434375000000E+01-1.715524978958E+00-5.093783605105E-09
     3.664438352852E-10 5.170000000000E+02 2.347000000000E+03
     3.120000000000E+00 0.000000000000E+00-6.286427378654E-09-6.053596735001E-09
     2.592650000000E+05
S36 2024 12 31 23 59 44 0.000000000000E+00 0.000000000000E+00 2.592640000000E+05
     4.200368800000E+04 0.000000000000E+00 0.000000000000E+00 6.300000000000E+01
     3.674846960000E+03 0.000000000000E+00 0.000000000000E+00 3.276700000000E+04
     0.000000000000E+00 0.000000000000E+00 0.000000000000E+00 1.530000000000E+02
E11 2024 12 31 23 40 00-6.000109715387E-05-2.196713921876E-10-3.469446951954E-18
     4.900000000000E+01 1.471875000000E+02 2.787973273135E-09 1.712792761471E+00
     6.906688213348E-06 2.581380540505E-04-6.947666406631E-07 5.440609739304E+03
     2.580000000000E+05-7.264316082001E-08-1.774930380975E+00 7.264316082001E-08
     9.965660008483E-01 3.710312500000E+02 1.104032997234E-01-5.713452273935E-09
     2.767972440020E-10 2.580000000000E+02 2.347000000000E+03
     3.120000000000E+00 0.000000000000E+00-1.699663698673E-08 0.000000000000E+00
     2.592900000000E+05
E36 2024 12 31 23 40 00-3.327510203235E-04-5.258016244625E-12 0.000000000000E+00
     4.900000000000E+01 1.423750000000E+02 2.780830118451E-09 2.079585389707E+00
     6.819143891335E-06 3.666823031381E-04-6.649643182755E-07 5.440611961365E+03
     2.580000000000E+05 1.005828380585E-07-1.775602565500E+00 7.078051567078E-08
     9.996673988797E-01 3.713437500000E+02-1.010032249543E+00-5.762382883520E-09
     2.117945363783E-10 2.580000000000E+02 2.347000000000E+03
     3.120000000000E+00 0.000000000000E+00 1.629814505577E-09 0.000000000000E+00
     2.592900000000E+05
S23 2025 01 01 00 01 36 0.000000000000E+00 0.000000000000E+00 2.592960000000E+05
     3.866796400000E+04 0.000000000000E+00 0.000000000000E+00 6.300000000000E+01
     1.681330800000E+04 0.000000000000E+00 0.000000000000E+00 3.276700000000E+04
     0.000000000000E+00 0.000000000000E+00 0.000000000000E+00 2.430000000000E+02
C19 2025 01 01 00 00 00-9.652146836743E-04 1.700861673726E-12 0.000000000000E+00
     1.000000000000E+00-1.730000000000E+02 3.183704042624E-09 8.593254762753E-01
    -8.724629878998E-06 7.915528258309E-04 7.488764822483E-06 5.282639535904E+03
     2.592000000000E+05 7.636845111847E-08-3.006030211624E-01-9.778887033463E-09
     9.817358385183E-01 2.186093750000E+02-9.923804825047E-01-6.506342443850E-09
    -2.521533603424E-10 0.000000000000E+00 9.910000000000E+02 0.000000000000E+00
     2.000000000000E+00 0.000000000000E+00 1.030000000000E-08 1.030000000000E-08
     2.593080000000E+05 1.000000000000E+00
